#dP2023  5 10  0  0  0.00000000      96 __u+U ITR00 FIT  IAC
## 2261 259200.00000000   900.00000000 60074 0.0000000000000
+  119   C06C07C08C09C10C11C12C13C14C16C19C20C21C22C23C24C25
+        C26C27C28C29C30C32C33C34C35C36C37C38C39C40C41C42C43
+        C44C45C46E02E03E04E05E07E08E09E10E11E12E13E14E15E18
+        E19E21E24E25E26E27E30E31E33E34E36G01G02G03G04G05G06
+        G07G08G09G10G11G12G13G14G15G16G17G18G19G20G21G22G23
+        G24G25G26G27G28G29G30G31G32J02J03J04R01R02R03R04R05
+        R07R08R09R11R12R13R14R15R16R17R18R19R20R21R22R24R25
++         9  9  7  9  9  6  8  9  8  9  5  7  7  8  6  6  7
++         8  6  6  7  7  6  7  7  6  8  7  9  8  9  6  8  7
++         6  7  7  7  0  6  5  6  6  5  6  7  6  6  6  5  6
++         5  6  6  6  7  5  6  5  6  6  6  7  5  5  6  5  7
++         6  6  5  6  6  9  5  6  5  6  6  5  6  6  5  5  6
++         6  6  6  6  6  5  6  5  5  8  7  8  7  5  5  6  5
++         5  5  5  6  8  7  7  9  7  6  7  6  7  7  6  6  7
%c M  cc GPS ccc cccc cccc cccc cccc ccccc ccccc ccccc ccccc
%c cc cc ccc ccc cccc cccc cccc cccc ccccc ccccc ccccc ccccc
%f  0.0000000  0.000000000  0.00000000000  0.000000000000000
%f  0.0000000  0.000000000  0.00000000000  0.000000000000000
%i    0    0    0    0      0      0      0      0         0
%i    0    0    0    0      0      0      0      0         0
/* INFORMATION & ANALYSIS CENTER (IAC)      ULTRA-RAPID DATA
/* S/V CLOCKS ARE ALIGNED TO GNSS TIME                      
/* G:C1WC2W R:C1PC2P E:C1XC5X C:C2IC6I J:C1CC2S             
/* PCV:IGS20_2247 OL/AL:FES2004  NONE     YN ORB:CoN CLK:CoN
*  2023 05 10 23 30  0.00000000
PC06 -17485.798750  35205.505281  14932.534439   -192.464230
PC07  -3842.446469  35839.406860  22069.198144      0.074702
PC08  -8739.034021  19179.850816 -36537.169920    488.195317
PC09  -9596.320495  33591.727022  23641.820058    668.457076
PC10   3408.505567  39120.956091  16332.579441    -55.112757
PC11  18374.479570 -19271.179439  -8264.308173    612.393572
PC12  17866.248527  -2313.640117 -21280.084620    630.272320
PC13   -577.085886  21999.900242 -35804.973062    271.812783
PC14  11320.719311 -11527.386580  22767.783139    241.784778
PC16 -20126.252690  34949.447199  12006.592978     82.511419
PC19  -3895.804416  19611.732064 -19448.757710   -908.863709
PC20 -15833.029439   3503.616363 -22689.518335    575.628069
PC21  19140.103725  16101.071167  12428.644559   -913.931074
PC22  10852.899879  25269.313628  -4835.429836   -494.419021
PC23  -6604.256348 -15847.979194 -21994.146277   -925.404918
PC24  27201.220544  -3638.161362  -5009.987194    -69.349156
PC25  13331.751211 -14530.884187 -19746.281917    123.971550
PC26  24542.702321   7321.488256  11027.787326   -118.515129
PC27 -14445.953101  -6816.036537  22857.193158    138.312913
PC28  -1744.612143 -21423.343862  17796.176647    102.254321
PC29 -12625.045949  24867.061693   -956.015008    118.669367
PC30 -19290.751989  12224.962583  16008.843194     -0.171789
PC32 -19231.067373 -16000.011484 -12326.980917   -564.385935
PC33   3929.363942 -19543.898471  19527.224178   -880.356717
PC34  19290.751716 -13437.989528 -15069.552719    167.896995
PC35   1994.777898  21800.586045 -17299.466898    629.951746
PC36 -14431.688681  13972.717496  19395.705748   -449.265823
PC37 -23690.688187  -8571.161730 -12011.586910   -784.646360
PC38 -17784.532033  19035.608719 -33158.427210     77.499467
PC39 -22111.437121  35261.449389   6036.673394     -2.898588
PC40  -6942.799444  32924.036784  25551.277615    -22.840800
PC41 -10420.600021 -25288.174554   5559.985911   -948.097264
PC42  16560.428584  -2077.232706  22417.747710   -697.666398
PC43  13205.894324 -24598.241479    108.570221     20.791936
PC44  14752.076210   6510.662154 -22794.314900    102.677787
PC45   7107.384963  15663.159126  21971.612944    -95.990197
PC46 -26776.550310   4578.061251   6469.592279    -53.132604
PE02  15225.115167  -9508.505151 -23538.866852     37.385235
PE03      0.000000      0.000000      0.000000 999999.999999
PE04   -490.552005  29595.036456    448.346553   -119.521962
PE05  17035.917705   -211.363967  24215.814241    -68.661758
PE07 -11678.377985 -20877.026767 -17413.923957    -44.119492
PE08    652.969636 -29585.428821   -141.590407    -81.057533
PE09  11536.741490  21014.438058  17383.104980    -10.334934
PE10   4161.652901  15813.144683 -24685.441679   -532.802512
PE11  14899.535639   9435.622603 -23791.805388   1884.861239
PE12  -6196.470754  19262.332385 -21603.699729   -533.397571
PE13 -14126.774346  -9904.925775  24046.919107    -19.134514
PE14  19252.233378  -4386.376767 -22121.108558    221.550257
PE15   6596.987719 -19298.641611  21456.332931    -20.848768
PE18 -13563.589620  21274.842330  12352.829291     49.279705
PE19 -13361.413272  18942.728969 -18393.094734  -2563.613117
PE21 -26024.380173  -5715.505473  12891.219705   -528.380469
PE24  21858.505540  18869.479572   6441.691880    -91.811027
PE25  26098.320283   5986.887745 -12611.419193   -604.853699
PE26 -26551.177232   5651.307029  11794.094422    100.492674
PE27 -22374.919368 -18505.246187  -5774.874025    -46.348551
PE30  -4906.029575 -20188.599017 -21099.885853   -162.688061
PE31   5577.286071  20261.086092  20849.261962   -523.477522
PE33 -23246.137780  17221.671334  -6229.584855   -444.645714
PE34  23145.111361 -17318.157063   6356.251785    -44.755855
PE36  26325.484326  -5171.151186 -12525.883645    -54.226873
PG01  -4566.689500  16801.121298 -20279.074577    186.296316
PG02 -24035.883348   6512.891200   9606.871061   -597.500098
PG03   6462.019857  18813.624845 -17789.112190   -306.910952
PG04    162.712960  26170.033144   4174.933431     38.227328
PG05  10219.396910 -11261.545504  21610.725064   -126.715451
PG06  24106.439619  -3773.524710 -10553.076580    588.108676
PG07  11599.978316  11450.390500  21496.165776    181.302190
PG08  -6745.750533  24138.587705   8093.275733   -121.808574
PG09   8256.672641  21484.218640  13146.610457   -161.641486
PG10 -23609.603769 -10480.107706  -6668.741725    -36.406363
PG11  23062.334818 -12600.790494   3721.232759   -192.316916
PG12  -2356.776438 -18619.384535 -19106.494846   -374.478151
PG13  13076.134519 -18917.726718  12931.503701    518.134241
PG14  22941.675617  12875.359975  -4186.684411     52.623718
PG15   3502.492679 -25093.414615   7047.958113     38.380065
PG16 -14276.047328   7123.398241  21002.731881   -502.100034
PG17  13384.161811   7938.967921 -21082.053933    714.302241
PG18 -14304.590196  -8807.015500  20609.180376   -260.984886
PG19  15349.027869  -1483.447963 -21818.443385    315.184005
PG20  18077.428991  -6266.218788  18378.049766    434.268159
PG21 -12423.608691  18337.006019 -13436.851531    153.878432
PG22 -15307.865098   5726.428258 -20451.670729    479.155897
PG23 -20116.901202 -16749.667453   4958.657118     23.185151
PG24   7565.971756 -19136.176461 -16918.934161   -184.067396
PG25 -13996.840292 -19450.342957 -12054.575312    441.902804
PG26 -22589.214712  -1099.814153  14076.472472    240.939934
PG27 -12583.918990  15899.732134  16680.280750     40.193138
PG28 -23438.723079   2803.511900 -12193.305655     76.307776
PG29  -3974.125760 -23792.795200  10963.658426   -598.953495
PG30  20895.291442   3378.074131  16311.823541   -517.902721
PG31 -25012.778003   9265.475646  -2842.690830   -215.852946
PG32 -14756.117744  -4701.407198 -21416.947126   -473.398744
PJ02 -26157.996500  22250.674737  29569.345405      0.064316
PJ03 -34524.219070  24226.574721   4999.977254      3.875936
PJ04 -21606.457015  23938.429425 -22027.433936     94.464744
PR01 -13443.951387  -8140.333965 -20079.085858     57.249242
PR02  -7126.326146  10803.883422 -21919.303416    -22.865162
PR03   2882.800267  22966.217346 -10607.704720     77.580029
PR04  10862.811656  22205.745593   6308.286340    186.677572
PR05  13020.139114   9417.871175  19820.302978    112.345048
PR07  -3281.806919 -23286.063608   9985.006007     55.640420
PR08 -11032.001058 -22109.274185  -6328.433807    -70.719066
PR09  18673.978689  -5400.038686 -16544.045815    119.458712
PR11 -15576.562329 -10796.093576 -17053.654634    -53.240192
PR12 -25164.379754  -4198.199688    456.069871     27.151196
PR13 -19987.285938   4149.048019  15281.248926    -34.907690
PR14  -1474.192513  11042.733077  22957.757092     24.650575
PR15  16511.118227  10817.286768  16178.816437     89.388481
PR16  25180.249177   4191.362774    -61.403498     14.413335
PR17  -9960.171600  20091.144039 -12188.899464    628.834251
PR18   2914.560127  11917.420993 -22345.941503     80.877584
PR19  13649.455949   -626.207053 -21546.238310   -232.162506
PR20  18772.592552 -16230.090003  -6003.124814    -92.656942
PR21   9018.811391 -19632.717980  13536.526293     -6.512800
PR22  -3526.174349 -11676.373689  22426.819813     81.793359
PR24 -18190.418259  17074.242030   5351.355306    169.223522
PR25  10843.823330 -19726.294703  11983.252973     60.816736
EOF
